#aV2024  1 20  0  0  0.00000000     288 DD+AD WGS84 FIT  NGA
## 2297 518400.00000000   300.00000000 60329 0.0000000000000
+   31     1  2  3  4  5  6  7  8  9 10 11 12 13 14 15 16 17
+         18 19 20 21 22 23 24 25 26 28 29 30 31 32  0  0  0
+          0  0  0  0  0  0  0  0  0  0  0  0  0  0  0  0  0
+          0  0  0  0  0  0  0  0  0  0  0  0  0  0  0  0  0
+          0  0  0  0  0  0  0  0  0  0  0  0  0  0  0  0  0
++         2  2  2  2  2  2  2  2  2  2  2  2  2  2  2  2  2
++         2  2  2  2  2  2  2  2  2  2  2  2  2  2  0  0  0
++         0  0  0  0  0  0  0  0  0  0  0  0  0  0  0  0  0
++         0  0  0  0  0  0  0  0  0  0  0  0  0  0  0  0  0
++         0  0  0  0  0  0  0  0  0  0  0  0  0  0  0  0  0
%c cc cc ccc ccc cccc cccc cccc cccc ccccc ccccc ccccc ccccc
%c cc cc ccc ccc cccc cccc cccc cccc ccccc ccccc ccccc ccccc
%f  0.0000000  0.000000000  0.00000000000  0.000000000000000
%f  0.0000000  0.000000000  0.00000000000  0.000000000000000
%i    0    0    0    0      0      0      0      0         0
%i    0    0    0    0      0      0      0      0         0
/*      NGA, ST. LOUIS,MO.                                  
/*   EPHEMERIS COMPUTED FROM 2 DAYS OF DATA                 
/*   EPOCHA v9 SMOOTHER                                     
/*   G2296 IERS2010 SATIGS SATAPC                           
*  2024  1 20 19 20  0.00000000
P  1  10062.898098 -21049.996779 -12716.914205    166.675681                    
V  1  12516.453699  -9565.148334  26797.739771      0.011338                    
P  2  14735.784651 -21475.452541  -4003.776547   -497.953705                    
V  2   5879.305495  -2523.459911  31515.939539      0.056714                    
P  3   6718.845665 -13406.648098 -22056.831857    139.436616                    
V  3  26535.557582   7620.496767   3585.362831      0.254028                    
P  4   2849.298043 -23684.671900 -11520.156005    271.093750                    
V  4   5573.257386  13803.462711 -27100.893325      0.096723                    
P  5 -18453.364353   7983.641877  17228.651611   -158.700293                    
V  5 -21285.648009  -6357.484610 -19562.347260     -0.014188                    
P  6 -18063.580705   -307.714045 -19433.392518    437.749264                    
V  6  17179.208665 -17805.640545 -15527.248117     -0.135554                    
P  7  -3431.661352 -17101.378615  20386.262756    -42.134977                    
V  7  18680.690520 -16643.915401 -11556.639292     -0.093002                    
P  8   7968.520706 -17646.318868  17899.056477   -163.067455                    
V  8   8416.061547  21584.454063  17861.639407     -0.018217                    
P  9  -7244.509806 -25520.495927   -138.970644     65.198174                    
V  9   2868.627411   -745.770945 -31728.965472      0.122986                    
P 10  23429.841513  11082.588504   6748.532712    -70.103388                    
V 10  -8374.016278   -490.665771  30491.231731     -0.015291                    
P 11 -22094.986394   9272.263926 -11379.918078   -547.042113                    
V 11   9241.631360 -11408.362940 -27222.334272     -0.137981                    
P 12  -7867.932829  13344.861013 -21855.180006   -469.854008                    
V 12 -25445.528875  -9245.436973   3631.199608     -0.038217                    
P 13 -13537.545762   8250.923725  21069.171726    617.768746                    
V 13  -3918.509328 -26965.398706   8178.619918      0.036924                    
P 14 -20883.949433 -13528.777641   9568.901520    303.950376                    
V 14  12372.714231    839.678990  28072.314709      0.101877                    
P 15  -5990.870434  18619.567066  17385.005807    119.247482                    
V 15 -11271.151185 -20420.872695  17707.752245      0.038851                    
P 16  23317.250852   -849.048695  12778.365554   -380.099309                    
V 16  14856.759625   7635.378709 -25484.603928      0.078490                    
P 17 -12454.223359 -19614.792923 -12302.040627    719.396692                    
V 17   -932.043791 -16477.070600  26448.630099     -0.008949                    
P 18   3748.459953  15988.699675  20848.934383   -536.791675                    
V 18 -19710.293939  17647.438963 -10174.266517     -0.090558                    
P 19 -14942.019919 -11480.206769 -19048.190683    429.276167                    
V 19  -2537.033602 -23528.569752  15984.164322      0.052670                    
P 20 -25787.684598   1719.533732   5781.352048    390.631150                    
V 20  -6986.495802  -3791.205811 -30512.956646     -0.015040                    
P 21  17130.402598 -19591.255657    649.713102    137.759461                    
V 21   2606.403018   2539.350367  32410.344767     -0.012678                    
P 22 -23927.287420 -10931.058572   2664.141698     44.907470                    
V 22   3749.869604  -1781.511092  31738.118173     -0.064514                    
P 23  14199.966661  15084.702852  16749.628597    139.279427                    
V 23 -20841.393908  -3661.139253  20808.371631      0.075926                    
P 24 -14634.828892  21657.314924  -3616.790093   -417.458298                    
V 24  -5706.998447    668.661597  30955.208333     -0.069847                    
P 25   5257.140681  16490.399616 -20551.182444    485.933392                    
V 25 -24729.380831  -5458.216065 -10614.713314      0.012782                    
P 26  26429.578524   3089.130461   2685.008433    198.462156                    
V 26   2849.208274   4013.396603 -30618.602781     -0.036359                    
P 28  16757.065549   3018.221200 -20404.944332   -104.740320                    
V 28 -17047.026031  19472.327722 -11136.154719     -0.116681                    
P 29   3990.767238  26180.126577  -1144.904049   -608.417344                    
V 29  -2708.694447   -926.640774 -32057.271801      0.005279                    
P 30 -13022.618325  -9287.519980  21347.021262   -443.022490                    
V 30  19015.539494 -19022.308383   3075.791819      0.046958                    
P 31  21377.876452  -5243.880301 -15357.666180   -227.418159                    
V 31 -12525.624432  14384.550582 -22256.791387     -0.002088                    
P 32  15051.554839  16152.588627 -14718.972521   -606.490423                    
V 32   3072.011058  18802.800605  23259.776392     -0.027122                    
EOF
